{
  "type": "FeatureCollection",
  "features": [
    {
      "type": "Feature",
      "properties": {
        "norad_id": 58647,
        "name": "TIANMU-1 13",
        "group": "weather",
        "lat": 5.562707561861213,
        "lon": -3.634249410793154,
        "alt_km": 492.6285986322664,
        "timestamp": "2025-12-03T06:58:42.884570+00:00",
        "meta_object_name": "TIANMU-1 13",
        "meta_object_id": "2023-205C",
        "meta_epoch": "2025-12-02T21:30:04.406112",
        "meta_mean_motion": 15.24326964,
        "meta_eccentricity": 0.0006439,
        "meta_inclination": 97.3629,
        "meta_ra_of_asc_node": 356.6994,
        "meta_arg_of_pericenter": 311.5004,
        "meta_mean_anomaly": 48.568,
        "meta_ephemeris_type": 0,
        "meta_classification_type": "U",
        "meta_norad_cat_id": 58647,
        "meta_element_set_no": 999,
        "meta_rev_at_epoch": 10757,
        "meta_bstar": 0.00034885,
        "meta_mean_motion_dot": 8.468e-05,
        "meta_mean_motion_ddot": 0,
        "tle_line1": "1 58647U 23205C   25336.89588433  .00008468  00000+0  34885-3 0  9995",
        "tle_line2": "2 58647  97.3629 356.6994 0006439 311.5004  48.5680 15.24326964107579"
      },
      "geometry": {
        "type": "Point",
        "coordinates": [
          -3.634249410793154,
          5.562707561861213
        ]
      }
    },
    {
      "type": "Feature",
      "properties": {
        "norad_id": 58648,
        "name": "TIANMU-1 14",
        "group": "weather",
        "lat": 79.62982778424093,
        "lon": -138.647684502214,
        "alt_km": 489.51403117882364,
        "timestamp": "2025-12-03T06:58:42.884586+00:00",
        "meta_object_name": "TIANMU-1 14",
        "meta_object_id": "2023-205D",
        "meta_epoch": "2025-12-02T21:06:01.018080",
        "meta_mean_motion": 15.2431148,
        "meta_eccentricity": 0.000735,
        "meta_inclination": 97.3561,
        "meta_ra_of_asc_node": 356.0409,
        "meta_arg_of_pericenter": 315.635,
        "meta_mean_anomaly": 44.4297,
        "meta_ephemeris_type": 0,
        "meta_classification_type": "U",
        "meta_norad_cat_id": 58648,
        "meta_element_set_no": 999,
        "meta_rev_at_epoch": 10757,
        "meta_bstar": 0.00036357,
        "meta_mean_motion_dot": 8.826e-05,
        "meta_mean_motion_ddot": 0,
        "tle_line1": "1 58648U 23205D   25336.87917845  .00008826  00000+0  36357-3 0  9991",
        "tle_line2": "2 58648  97.3561 356.0409 0007350 315.6350  44.4297 15.24311480107578"
      },
      "geometry": {
        "type": "Point",
        "coordinates": [
          -138.647684502214,
          79.62982778424093
        ]
      }
    },
    {
      "type": "Feature",
      "properties": {
        "norad_id": 58660,
        "name": "TIANMU-1 19",
        "group": "weather",
        "lat": -59.25357221751856,
        "lon": -104.3402380424762,
        "alt_km": 488.6328258901649,
        "timestamp": "2025-12-03T06:58:42.884602+00:00",
        "meta_object_name": "TIANMU-1 19",
        "meta_object_id": "2023-208A",
        "meta_epoch": "2025-12-02T20:29:52.041120",
        "meta_mean_motion": 15.27560905,
        "meta_eccentricity": 0.0004125,
        "meta_inclination": 97.4391,
        "meta_ra_of_asc_node": 87.913,
        "meta_arg_of_pericenter": 297.0474,
        "meta_mean_anomaly": 63.0344,
        "meta_ephemeris_type": 0,
        "meta_classification_type": "U",
        "meta_norad_cat_id": 58660,
        "meta_element_set_no": 999,
        "meta_rev_at_epoch": 10731,
        "meta_bstar": 0.00046435,
        "meta_mean_motion_dot": 0.00012453,
        "meta_mean_motion_ddot": 0,
        "tle_line1": "1 58660U 23208A   25336.85407455  .00012453  00000+0  46435-3 0  9996",
        "tle_line2": "2 58660  97.4391  87.9130 0004125 297.0474  63.0344 15.27560905107315"
      },
      "geometry": {
        "type": "Point",
        "coordinates": [
          -104.3402380424762,
          -59.25357221751856
        ]
      }
    },
    {
      "type": "Feature",
      "properties": {
        "norad_id": 58661,
        "name": "TIANMU-1 20",
        "group": "weather",
        "lat": -81.66050945037567,
        "lon": 151.73696814259858,
        "alt_km": 483.0805087276549,
        "timestamp": "2025-12-03T06:58:42.884618+00:00",
        "meta_object_name": "TIANMU-1 20",
        "meta_object_id": "2023-208B",
        "meta_epoch": "2025-12-02T20:21:30.592800",
        "meta_mean_motion": 15.2875401,
        "meta_eccentricity": 0.0006493,
        "meta_inclination": 97.4329,
        "meta_ra_of_asc_node": 88.3451,
        "meta_arg_of_pericenter": 307.0604,
        "meta_mean_anomaly": 53.0041,
        "meta_ephemeris_type": 0,
        "meta_classification_type": "U",
        "meta_norad_cat_id": 58661,
        "meta_element_set_no": 999,
        "meta_rev_at_epoch": 10738,
        "meta_bstar": 0.00044172,
        "meta_mean_motion_dot": 0.00012286,
        "meta_mean_motion_ddot": 0,
        "tle_line1": "1 58661U 23208B   25336.84827075  .00012286  00000+0  44172-3 0  9990",
        "tle_line2": "2 58661  97.4329  88.3451 0006493 307.0604  53.0041 15.28754010107388"
      },
      "geometry": {
        "type": "Point",
        "coordinates": [
          151.73696814259858,
          -81.66050945037567
        ]
      }
    },
    {
      "type": "Feature",
      "properties": {
        "norad_id": 58662,
        "name": "TIANMU-1 21",
        "group": "weather",
        "lat": -13.980572160539353,
        "lon": -91.21049939415107,
        "alt_km": 477.990405644925,
        "timestamp": "2025-12-03T06:58:42.884635+00:00",
        "meta_object_name": "TIANMU-1 21",
        "meta_object_id": "2023-208C",
        "meta_epoch": "2025-12-02T20:43:23.380320",
        "meta_mean_motion": 15.31215503,
        "meta_eccentricity": 0.0006003,
        "meta_inclination": 97.4375,
        "meta_ra_of_asc_node": 90.2248,
        "meta_arg_of_pericenter": 301.309,
        "meta_mean_anomaly": 58.7563,
        "meta_ephemeris_type": 0,
        "meta_classification_type": "U",
        "meta_norad_cat_id": 58662,
        "meta_element_set_no": 999,
        "meta_rev_at_epoch": 10748,
        "meta_bstar": 0.00048562,
        "meta_mean_motion_dot": 0.00014584,
        "meta_mean_motion_ddot": 0,
        "tle_line1": "1 58662U 23208C   25336.86346505  .00014584  00000+0  48562-3 0  9997",
        "tle_line2": "2 58662  97.4375  90.2248 0006003 301.3090  58.7563 15.31215503107484"
      },
      "geometry": {
        "type": "Point",
        "coordinates": [
          -91.21049939415107,
          -13.980572160539353
        ]
      }
    },
    {
      "type": "Feature",
      "properties": {
        "norad_id": 58663,
        "name": "TIANMU-1 22",
        "group": "weather",
        "lat": -68.05180874570779,
        "lon": -110.50646789666136,
        "alt_km": 490.7462991242228,
        "timestamp": "2025-12-03T06:58:42.884650+00:00",
        "meta_object_name": "TIANMU-1 22",
        "meta_object_id": "2023-208D",
        "meta_epoch": "2025-12-02T20:27:21.803616",
        "meta_mean_motion": 15.27335865,
        "meta_eccentricity": 0.0003111,
        "meta_inclination": 97.4385,
        "meta_ra_of_asc_node": 87.9747,
        "meta_arg_of_pericenter": 333.095,
        "meta_mean_anomaly": 27.0127,
        "meta_ephemeris_type": 0,
        "meta_classification_type": "U",
        "meta_norad_cat_id": 58663,
        "meta_element_set_no": 999,
        "meta_rev_at_epoch": 10732,
        "meta_bstar": 0.0004407,
        "meta_mean_motion_dot": 0.00011732,
        "meta_mean_motion_ddot": 0,
        "tle_line1": "1 58663U 23208D   25336.85233569  .00011732  00000+0  44070-3 0  9994",
        "tle_line2": "2 58663  97.4385  87.9747 0003111 333.0950  27.0127 15.27335865107324"
      },
      "geometry": {
        "type": "Point",
        "coordinates": [
          -110.50646789666136,
          -68.05180874570779
        ]
      }
    },
    {
      "type": "Feature",
      "properties": {
        "norad_id": 58700,
        "name": "TIANMU-1 15",
        "group": "weather",
        "lat": 61.86516130950533,
        "lon": -7.015979884784178,
        "alt_km": 489.4655574963881,
        "timestamp": "2025-12-03T06:58:42.884666+00:00",
        "meta_object_name": "TIANMU-1 15",
        "meta_object_id": "2024-004A",
        "meta_epoch": "2025-12-02T21:00:52.565760",
        "meta_mean_motion": 15.24468796,
        "meta_eccentricity": 0.000582,
        "meta_inclination": 97.4626,
        "meta_ra_of_asc_node": 158.3809,
        "meta_arg_of_pericenter": 337.8339,
        "meta_mean_anomaly": 22.2646,
        "meta_ephemeris_type": 0,
        "meta_classification_type": "U",
        "meta_norad_cat_id": 58700,
        "meta_element_set_no": 999,
        "meta_rev_at_epoch": 10584,
        "meta_bstar": 0.0003766,
        "meta_mean_motion_dot": 9.185e-05,
        "meta_mean_motion_ddot": 0,
        "tle_line1": "1 58700U 24004A   25336.87560840  .00009185  00000+0  37660-3 0  9994",
        "tle_line2": "2 58700  97.4626 158.3809 0005820 337.8339  22.2646 15.24468796105843"
      },
      "geometry": {
        "type": "Point",
        "coordinates": [
          -7.015979884784178,
          61.86516130950533
        ]
      }
    }
  ]
}